{
  "norad_id": 64309,
  "name": "STARLINK-34370",
  "history": [
    {
      "epoch": "2026-03-28T21:21:11.554848Z",
      "apogee_km": 572.7201376121529,
      "perigee_km": 570.6183772037875,
      "latitude_deg": 6.017363277553818e-05,
      "longitude_deg": -0.5207045035426215,
      "height_km": 574.5900977540541,
      "semi_major_axis_km": 6949.8062574079695,
      "eccentricity": 0.00015121,
      "inclination_deg": 70.0021,
      "raan_deg": 146.0811,
      "arg_perigee_deg": 241.9064,
      "mean_anomaly_deg": 118.1943,
      "mean_motion_rev_day": 14.98455035
    },
    {
      "epoch": "2026-03-29T05:21:55.152864Z",
      "apogee_km": 574.0666414724365,
      "perigee_km": 570.2092388806386,
      "latitude_deg": 2.8363453425302712e-06,
      "longitude_deg": -121.87322927421624,
      "height_km": 575.7843842872344,
      "semi_major_axis_km": 6950.274940176538,
      "eccentricity": 0.0002775,
      "inclination_deg": 70.0016,
      "raan_deg": 145.2393,
      "arg_perigee_deg": 230.7763,
      "mean_anomaly_deg": 129.315,
      "mean_motion_rev_day": 14.98303468
    },
    {
      "epoch": "2026-03-30T03:47:50.187264Z",
      "apogee_km": 574.5974341570209,
      "perigee_km": 569.6641340838514,
      "latitude_deg": 2.3801874921141864e-05,
      "longitude_deg": -101.63227872401235,
      "height_km": 574.6673650643525,
      "semi_major_axis_km": 6950.267784120436,
      "eccentricity": 0.0003549,
      "inclination_deg": 70.0016,
      "raan_deg": 142.8808,
      "arg_perigee_deg": 267.4788,
      "mean_anomaly_deg": 92.5965,
      "mean_motion_rev_day": 14.98305782
    },
    {
      "epoch": "2026-03-30T05:23:56.932800Z",
      "apogee_km": 574.784199782589,
      "perigee_km": 569.4011079110924,
      "latitude_deg": -3.238925240594436e-05,
      "longitude_deg": -125.8944920030776,
      "height_km": 574.4633652714917,
      "semi_major_axis_km": 6950.229653846841,
      "eccentricity": 0.00038726,
      "inclination_deg": 70.0015,
      "raan_deg": 142.7125,
      "arg_perigee_deg": 271.2271,
      "mean_anomaly_deg": 88.8444,
      "mean_motion_rev_day": 14.98318112
    },
    {
      "epoch": "2026-03-30T13:24:38.530656Z",
      "apogee_km": 574.5770870240067,
      "perigee_km": 569.6367146544117,
      "latitude_deg": 9.412746102906607e-06,
      "longitude_deg": 112.76157624224325,
      "height_km": 574.7174269953534,
      "semi_major_axis_km": 6950.243900839208,
      "eccentricity": 0.00035541,
      "inclination_deg": 70.0012,
      "raan_deg": 141.8709,
      "arg_perigee_deg": 265.764,
      "mean_anomaly_deg": 94.3113,
      "mean_motion_rev_day": 14.98313505
    },
    {
      "epoch": "2026-03-31T10:14:22.114176Z",
      "apogee_km": 574.5510565619434,
      "perigee_km": 569.5271912525395,
      "latitude_deg": -7.886964373064829e-06,
      "longitude_deg": 157.28646576963772,
      "height_km": 574.5440740708273,
      "semi_major_axis_km": 6950.176123907241,
      "eccentricity": 0.00036142,
      "inclination_deg": 70.0014,
      "raan_deg": 139.6828,
      "arg_perigee_deg": 268.248,
      "mean_anomaly_deg": 91.8265,
      "mean_motion_rev_day": 14.98335422
    },
    {
      "epoch": "2026-03-31T13:26:38.247360Z",
      "apogee_km": 574.5388074068005,
      "perigee_km": 569.5291241746581,
      "latitude_deg": -3.0040921391526065e-05,
      "longitude_deg": 108.75113296187179,
      "height_km": 574.550345236667,
      "semi_major_axis_km": 6950.1709657907295,
      "eccentricity": 0.0003604,
      "inclination_deg": 70.0013,
      "raan_deg": 139.3463,
      "arg_perigee_deg": 267.9812,
      "mean_anomaly_deg": 92.0934,
      "mean_motion_rev_day": 14.9833709
    },
    {
      "epoch": "2026-04-01T08:40:14.932416Z",
      "apogee_km": 574.5193107289906,
      "perigee_km": 569.562443866902,
      "latitude_deg": 3.441397148822439e-05,
      "longitude_deg": 177.5387839972553,
      "height_km": 574.5508060410082,
      "semi_major_axis_km": 6950.177877297946,
      "eccentricity": 0.0003566,
      "inclination_deg": 70.0013,
      "raan_deg": 137.3264,
      "arg_perigee_deg": 268.1079,
      "mean_anomaly_deg": 91.9672,
      "mean_motion_rev_day": 14.98334855
    },
    {
      "epoch": "2026-04-02T19:55:12.232416Z",
      "apogee_km": 574.5561287328073,
      "perigee_km": 569.4865442390083,
      "latitude_deg": 8.475452631282925e-05,
      "longitude_deg": 3.6489183282484574,
      "height_km": 574.4556850085623,
      "semi_major_axis_km": 6950.158336485908,
      "eccentricity": 0.00036471,
      "inclination_deg": 70.0008,
      "raan_deg": 133.6229,
      "arg_perigee_deg": 269.8594,
      "mean_anomaly_deg": 90.2148,
      "mean_motion_rev_day": 14.98341174
    },
    {
      "epoch": "2026-04-03T11:56:32.653824Z",
      "apogee_km": 574.5859253633089,
      "perigee_km": 569.4448976245267,
      "latitude_deg": -2.652659352357313e-05,
      "longitude_deg": 120.9725748365468,
      "height_km": 574.4874933551605,
      "semi_major_axis_km": 6950.1524114939175,
      "eccentricity": 0.00036985,
      "inclination_deg": 70.0004,
      "raan_deg": 131.9397,
      "arg_perigee_deg": 269.021,
      "mean_anomaly_deg": 91.0525,
      "mean_motion_rev_day": 14.9834309
    },
    {
      "epoch": "2026-04-04T11:58:33.945600Z",
      "apogee_km": 574.7498406893255,
      "perigee_km": 569.3528804235857,
      "latitude_deg": -1.840360573847598e-05,
      "longitude_deg": 116.95526620032376,
      "height_km": 574.4219776997219,
      "semi_major_axis_km": 6950.188360556455,
      "eccentricity": 0.00038826,
      "inclination_deg": 70.0003,
      "raan_deg": 129.4148,
      "arg_perigee_deg": 271.2246,
      "mean_anomaly_deg": 88.8468,
      "mean_motion_rev_day": 14.98331465
    }
  ]
}